0 DMSP 5D-2 F11 DEB
1 28341U 91082BE  13283.66188895  .00031601  00000-0  89303-2 0   768
2 28341 098.3830 222.7286 0063169 032.6176 088.7040 14.44353112487543
0 DMSP 5D-2 F11 DEB
1 28341U 91082BE  13285.33011505  .00023693  00000-0  66950-2 0   773
2 28341 098.3825 224.3737 0063272 028.1541 122.5951 14.44432465487780
0 DMSP 5D-2 F11 DEB
1 28341U 91082BE  13287.04441122  .00023321  00000-0  65811-2 0   789
2 28341 098.3823 226.0653 0063154 023.4433 036.6196 14.44504027488030
0 DMSP 5D-2 F11 DEB
1 28341U 91082BE  13288.08278074  .00042341  00000-0  11892-1 0   791
2 28341 098.3829 227.0893 0062965 020.4447 036.3306 14.44563225488185
0 DMSP 5D-2 F11 DEB
1 28341U 91082BE  13288.64930821  .00032826  00000-0  92285-2 0   803
2 28341 098.3827 227.6482 0062977 018.9286 102.3741 14.44599169488261
0 DMSP 5D-2 F11 DEB
1 28341U 91082BE  13290.31764742  .00035767  00000-0  10032-1 0   814
2 28341 098.3831 229.2941 0062744 014.3159 138.5447 14.44693118488505
0 DMSP 5D-2 F11 DEB
1 28341U 91082BE  13291.62792943  .00030854  00000-0  86488-2 0   825
2 28341 098.3835 230.5859 0062689 010.7815 112.9656 14.44767102488692
0 DMSP 5D-2 F11 DEB
1 28341U 91082BE  13292.78719541  .00030459  00000-0  85277-2 0   833
2 28341 098.3834 231.7299 0062516 007.6390 022.2937 14.44836942488856
0 DMSP 5D-2 F11 DEB
1 28341U 91082BE  13294.33440605  .00034436  00000-0  96194-2 0   848
2 28341 098.3827 233.2569 0062226 003.4710 149.7212 14.44918861489081
0 DMSP 5D-2 F11 DEB
1 28341U 91082BE  13295.64425063  .00036469  00000-0  10170-1 0   852
2 28341 098.3828 234.5503 0061980 359.6855 123.1875 14.44992104489270
